[{"OBJECT_NAME":"INNOSAT 16 (RS92S7)","OBJECT_ID":"2025-155C","EPOCH":"2026-03-09T21:55:33.190176","MEAN_MOTION":15.24188147,"ECCENTRICITY":0.00110314,"INCLINATION":97.4467,"RA_OF_ASC_NODE":36.5104,"ARG_OF_PERICENTER":164.72,"MEAN_ANOMALY":195.4373,"EPHEMERIS_TYPE":0,"CLASSIFICATION_TYPE":"U","NORAD_CAT_ID":64878,"ELEMENT_SET_NO":999,"REV_AT_EPOCH":6554,"BSTAR":0.00039576165,"MEAN_MOTION_DOT":9.587e-5,"MEAN_MOTION_DDOT":0},{"OBJECT_NAME":"COSMOS 2251 DEB","OBJECT_ID":"1993-036AUQ","EPOCH":"2026-03-03T09:54:29.808000","MEAN_MOTION":15.20399634,"ECCENTRICITY":0.00017924,"INCLINATION":74.0063,"RA_OF_ASC_NODE":215.2278,"ARG_OF_PERICENTER":345.5252,"MEAN_ANOMALY":40.7842,"EPHEMERIS_TYPE":0,"CLASSIFICATION_TYPE":"U","NORAD_CAT_ID":35901,"ELEMENT_SET_NO":999,"REV_AT_EPOCH":87347,"BSTAR":0.0053747812,"MEAN_MOTION_DOT":0.00119078,"MEAN_MOTION_DDOT":0}]
